{
  "type": "FeatureCollection",
  "features": [
    {
      "type": "Feature",
      "properties": {
        "norad_id": 41581,
        "name": "INTELSAT 31 (IS-31)",
        "group": "intelsat",
        "lat": 0.00871073729025058,
        "lon": -22.185869680387608,
        "alt_km": 35785.38043241557,
        "timestamp": "2025-12-22T22:44:20.618790+00:00",
        "meta_object_name": "INTELSAT 31 (IS-31)",
        "meta_object_id": "2016-035A",
        "meta_epoch": "2025-12-22T11:00:05.552640",
        "meta_mean_motion": 1.0028394,
        "meta_eccentricity": 0.00017304,
        "meta_inclination": 0.0313,
        "meta_ra_of_asc_node": 263.1779,
        "meta_arg_of_pericenter": 322.7046,
        "meta_mean_anomaly": 295.354,
        "meta_ephemeris_type": 0,
        "meta_classification_type": "U",
        "meta_norad_cat_id": 41581,
        "meta_element_set_no": 999,
        "meta_rev_at_epoch": 3491,
        "meta_bstar": 0,
        "meta_mean_motion_dot": -1.31e-06,
        "meta_mean_motion_ddot": 0,
        "tle_line1": "1 41581U 16035A   25356.45839760 -.00000131  00000+0  00000+0 0  9991",
        "tle_line2": "2 41581   0.0313 263.1779 0001730 322.7046 295.3540  1.00283940 34910"
      },
      "geometry": {
        "type": "Point",
        "coordinates": [
          -22.185869680387608,
          0.00871073729025058
        ]
      }
    },
    {
      "type": "Feature",
      "properties": {
        "norad_id": 41747,
        "name": "INTELSAT 36 (IS-36)",
        "group": "intelsat",
        "lat": 0.023622734619082104,
        "lon": 141.3202254670086,
        "alt_km": 35790.515697130235,
        "timestamp": "2025-12-22T22:44:20.618802+00:00",
        "meta_object_name": "INTELSAT 36 (IS-36)",
        "meta_object_id": "2016-053A",
        "meta_epoch": "2025-12-22T13:29:30.047712",
        "meta_mean_motion": 1.0027117,
        "meta_eccentricity": 0.00010206,
        "meta_inclination": 0.0105,
        "meta_ra_of_asc_node": 0.216,
        "meta_arg_of_pericenter": 326.742,
        "meta_mean_anomaly": 35.2784,
        "meta_ephemeris_type": 0,
        "meta_classification_type": "U",
        "meta_norad_cat_id": 41747,
        "meta_element_set_no": 999,
        "meta_rev_at_epoch": 3417,
        "meta_bstar": 0,
        "meta_mean_motion_dot": -3e-08,
        "meta_mean_motion_ddot": 0,
        "tle_line1": "1 41747U 16053A   25356.56215333 -.00000003  00000+0  00000+0 0  9999",
        "tle_line2": "2 41747   0.0105   0.2160 0001020 326.7420  35.2784  1.00271170 34170"
      },
      "geometry": {
        "type": "Point",
        "coordinates": [
          141.3202254670086,
          0.023622734619082104
        ]
      }
    },
    {
      "type": "Feature",
      "properties": {
        "norad_id": 41945,
        "name": "INTELSAT 32E (IS-32E)",
        "group": "intelsat",
        "lat": -0.00896781588724913,
        "lon": 29.64905564771978,
        "alt_km": 35785.176259519554,
        "timestamp": "2025-12-22T22:44:20.618814+00:00",
        "meta_object_name": "INTELSAT 32E (IS-32E)",
        "meta_object_id": "2017-007B",
        "meta_epoch": "2025-12-22T11:14:34.167264",
        "meta_mean_motion": 1.00270563,
        "meta_eccentricity": 3.75e-05,
        "meta_inclination": 0.0236,
        "meta_ra_of_asc_node": 67.3909,
        "meta_arg_of_pericenter": 356.8656,
        "meta_mean_anomaly": 152.4885,
        "meta_ephemeris_type": 0,
        "meta_classification_type": "U",
        "meta_norad_cat_id": 41945,
        "meta_element_set_no": 999,
        "meta_rev_at_epoch": 3245,
        "meta_bstar": 0,
        "meta_mean_motion_dot": -2.47e-06,
        "meta_mean_motion_ddot": 0,
        "tle_line1": "1 41945U 17007B   25356.46845101 -.00000247  00000+0  00000+0 0  9990",
        "tle_line2": "2 41945   0.0236  67.3909 0000375 356.8656 152.4885  1.00270563 32455"
      },
      "geometry": {
        "type": "Point",
        "coordinates": [
          29.64905564771978,
          -0.00896781588724913
        ]
      }
    },
    {
      "type": "Feature",
      "properties": {
        "norad_id": 42818,
        "name": "INTELSAT 35E (IS-35E)",
        "group": "intelsat",
        "lat": 0.01973816665559326,
        "lon": 38.335777614281604,
        "alt_km": 35791.239196302944,
        "timestamp": "2025-12-22T22:44:20.618825+00:00",
        "meta_object_name": "INTELSAT 35E (IS-35E)",
        "meta_object_id": "2017-041A",
        "meta_epoch": "2025-12-22T11:17:18.904416",
        "meta_mean_motion": 1.00267679,
        "meta_eccentricity": 0.00019503,
        "meta_inclination": 0.0219,
        "meta_ra_of_asc_node": 17.0294,
        "meta_arg_of_pericenter": 262.6673,
        "meta_mean_anomaly": 306.4061,
        "meta_ephemeris_type": 0,
        "meta_classification_type": "U",
        "meta_norad_cat_id": 42818,
        "meta_element_set_no": 999,
        "meta_rev_at_epoch": 3104,
        "meta_bstar": 0,
        "meta_mean_motion_dot": 0,
        "meta_mean_motion_ddot": 0,
        "tle_line1": "1 42818U 17041A   25356.47035769  .00000000  00000+0  00000+0 0  9996",
        "tle_line2": "2 42818   0.0219  17.0294 0001950 262.6673 306.4061  1.00267679 31043"
      },
      "geometry": {
        "type": "Point",
        "coordinates": [
          38.335777614281604,
          0.01973816665559326
        ]
      }
    },
    {
      "type": "Feature",
      "properties": {
        "norad_id": 42950,
        "name": "INTELSAT 37E (IS-37E)",
        "group": "intelsat",
        "lat": 0.035185416544337954,
        "lon": 54.83276007710697,
        "alt_km": 35797.646004244285,
        "timestamp": "2025-12-22T22:44:20.618836+00:00",
        "meta_object_name": "INTELSAT 37E (IS-37E)",
        "meta_object_id": "2017-059A",
        "meta_epoch": "2025-12-22T07:56:38.121792",
        "meta_mean_motion": 1.00270278,
        "meta_eccentricity": 0.00029392,
        "meta_inclination": 0.0215,
        "meta_ra_of_asc_node": 5.7204,
        "meta_arg_of_pericenter": 255.6438,
        "meta_mean_anomaly": 290.929,
        "meta_ephemeris_type": 0,
        "meta_classification_type": "U",
        "meta_norad_cat_id": 42950,
        "meta_element_set_no": 999,
        "meta_rev_at_epoch": 3029,
        "meta_bstar": 0,
        "meta_mean_motion_dot": 0,
        "meta_mean_motion_ddot": 0,
        "tle_line1": "1 42950U 17059A   25356.33099678  .00000000  00000+0  00000+0 0  9996",
        "tle_line2": "2 42950   0.0215   5.7204 0002939 255.6438 290.9290  1.00270278 30296"
      },
      "geometry": {
        "type": "Point",
        "coordinates": [
          54.83276007710697,
          0.035185416544337954
        ]
      }
    },
    {
      "type": "Feature",
      "properties": {
        "norad_id": 43632,
        "name": "AZERSPACE 2 (IS-38)",
        "group": "intelsat",
        "lat": 0.01894012582868294,
        "lon": 117.92858559097071,
        "alt_km": 35791.17523602938,
        "timestamp": "2025-12-22T22:44:20.618848+00:00",
        "meta_object_name": "AZERSPACE 2 (IS-38)",
        "meta_object_id": "2018-074A",
        "meta_epoch": "2025-12-22T11:40:01.728768",
        "meta_mean_motion": 1.00269966,
        "meta_eccentricity": 0.00012119,
        "meta_inclination": 0.0009,
        "meta_ra_of_asc_node": 54.2649,
        "meta_arg_of_pericenter": 218.3873,
        "meta_mean_anomaly": 38.7587,
        "meta_ephemeris_type": 0,
        "meta_classification_type": "U",
        "meta_norad_cat_id": 43632,
        "meta_element_set_no": 999,
        "meta_rev_at_epoch": 2667,
        "meta_bstar": 0,
        "meta_mean_motion_dot": 1.58e-06,
        "meta_mean_motion_ddot": 0,
        "tle_line1": "1 43632U 18074A   25356.48613112  .00000158  00000+0  00000+0 0  9997",
        "tle_line2": "2 43632   0.0009  54.2649 0001211 218.3873  38.7587  1.00269966 26674"
      },
      "geometry": {
        "type": "Point",
        "coordinates": [
          117.92858559097071,
          0.01894012582868294
        ]
      }
    },
    {
      "type": "Feature",
      "properties": {
        "norad_id": 43633,
        "name": "HORIZONS-3E",
        "group": "intelsat",
        "lat": 0.00886580168450787,
        "lon": -118.20197581841516,
        "alt_km": 35786.273353693534,
        "timestamp": "2025-12-22T22:44:20.618860+00:00",
        "meta_object_name": "HORIZONS-3E",
        "meta_object_id": "2018-074B",
        "meta_epoch": "2025-12-22T10:32:38.181984",
        "meta_mean_motion": 1.00269678,
        "meta_eccentricity": 6.708e-05,
        "meta_inclination": 0.01,
        "meta_ra_of_asc_node": 217.192,
        "meta_arg_of_pericenter": 107.0412,
        "meta_mean_anomaly": 94.1555,
        "meta_ephemeris_type": 0,
        "meta_classification_type": "U",
        "meta_norad_cat_id": 43633,
        "meta_element_set_no": 999,
        "meta_rev_at_epoch": 2656,
        "meta_bstar": 0,
        "meta_mean_motion_dot": 0,
        "meta_mean_motion_ddot": 0,
        "tle_line1": "1 43633U 18074B   25356.43933081  .00000000  00000+0  00000+0 0  9999",
        "tle_line2": "2 43633   0.0100 217.1920 0000670 107.0412  94.1555  1.00269678 26569"
      },
      "geometry": {
        "type": "Point",
        "coordinates": [
          -118.20197581841516,
          0.00886580168450787
        ]
      }
    }
  ]
}